NORAD_CAT_ID,OBJECT_NAME,OBJECT_TYPE,EPOCH,MEAN_MOTION,ECCENTRICITY,INCLINATION,RA_OF_ASC_NODE,ARG_OF_PERICENTER,MEAN_ANOMALY,BSTAR,MEAN_MOTION_DOT,MEAN_MOTION_DDOT,TLE_LINE0,TLE_LINE1,TLE_LINE2,SEMIMAJOR_AXIS,PERIOD,APOGEE,PERIGEE,DECAYED
55296.0,STARLINK-5285,PAYLOAD,2023-03-26 19:48:23,15.69932627,0.0003844,70.0006,242.5232,272.6754,87.4002,5.2025e-05,6.05e-05,0.0,0 STARLINK-5285,1 55296U 23010AD  23085.82527592  .00006050  00000-0  52025-4 0  9990,2 55296  70.0006 242.5232 0003844 272.6754  87.4002 15.69932627 12109,6737.227,91.724,361.682,356.502,0.0
55296.0,STARLINK-5285,PAYLOAD,2023-03-27 03:27:10,15.69917037,0.0003463,70.0007,241.6269,272.0815,87.9984,-3.4562e-06,-6.28e-06,0.0,0 STARLINK-5285,1 55296U 23010AD  23086.14386586 -.00000628  00000-0 -34562-5 0  9996,2 55296  70.0007 241.6269 0003463 272.0815  87.9984 15.69917037 10963,6737.271,91.725,361.469,356.803,0.0
55296.0,STARLINK-5285,PAYLOAD,2023-03-27 12:37:40,15.6992601,0.0003943,70.0015,240.5521,273.5706,86.5038,-2.2976e-05,-2.975e-05,0.0,0 STARLINK-5285,1 55296U 23010AD  23086.52615970 -.00002975  00000-0 -22976-4 0  9992,2 55296  70.0015 240.5521 0003943 273.5706  86.5038 15.69926010 11023,6737.246,91.724,361.767,356.454,0.0
55296.0,STARLINK-5285,PAYLOAD,2023-03-27 20:16:25,15.69935584,0.000384,70.0001,239.6562,269.7922,90.2833,-2.3151e-06,-4.92e-06,0.0,0 STARLINK-5285,1 55296U 23010AD  23086.84473835 -.00000492  00000-0 -23151-5 0  9998,2 55296  70.0001 239.6562 0003840 269.7922  90.2833 15.69935584 11071,6737.218,91.724,361.67,356.496,0.0
55296.0,STARLINK-5285,PAYLOAD,2023-03-28 13:05:41,15.69933253,0.0003947,70.0007,237.6859,269.5432,90.5311,3.6779e-05,4.214e-05,0.0,0 STARLINK-5285,1 55296U 23010AD  23087.54562276  .00004214  00000-0  36779-4 0  9997,2 55296  70.0007 237.6859 0003947 269.5432  90.5311 15.69933253 12375,6737.225,91.724,361.749,356.431,0.0
55296.0,STARLINK-5285,PAYLOAD,2023-03-28 19:12:41,15.69952176,0.0003531,70.0014,236.9709,267.4306,92.6485,0.00013052,0.00015529,0.0,0 STARLINK-5285,1 55296U 23010AD  23087.80048519  .00015529  00000-0  13052-3 0  9994,2 55296  70.0014 236.9709 0003531 267.4306  92.6485 15.69952176 12410,6737.171,91.723,361.415,356.657,0.0
55296.0,STARLINK-5285,PAYLOAD,2023-03-28 22:16:11,15.69954401,0.0003658,70.0005,236.6114,266.8843,93.1934,0.00012082,0.00014358,0.0,0 STARLINK-5285,1 55296U 23010AD  23087.92791630  .00014358  00000-0  12082-3 0  9997,2 55296  70.0005 236.6114 0003658 266.8843  93.1934 15.69954401 11244,6737.164,91.722,361.494,356.565,0.0
55296.0,STARLINK-5285,PAYLOAD,2023-03-29 02:51:27,15.69934198,0.0003648,70.0011,236.0738,267.1175,92.9603,7.4263e-06,6.81e-06,0.0,0 STARLINK-5285,1 55296U 23010AD  23088.11906811  .00000681  00000-0  74263-5 0  9993,2 55296  70.0011 236.0738 0003648 267.1175  92.9603 15.69934198 11272,6737.222,91.724,361.545,356.63,0.0
55296.0,STARLINK-5285,PAYLOAD,2023-03-29 12:01:58,15.69909857,0.0003373,70.0011,235.0006,264.5686,95.5125,-7.1084e-05,-8.746e-05,0.0,0 STARLINK-5285,1 55296U 23010AD  23088.50137559 -.00008746  00000-0 -71084-4 0  9990,2 55296  70.0011 235.0006 0003373 264.5686  95.5125 15.69909857 11331,6737.292,91.725,361.429,356.884,0.0
55296.0,STARLINK-5285,PAYLOAD,2023-03-29 21:12:29,15.69928096,0.0003159,70.0006,233.9251,263.5053,96.5783,0.00010036,0.00011873,0.0,0 STARLINK-5285,1 55296U 23010AD  23088.88367674  .00011873  00000-0  10036-3 0  9996,2 55296  70.0006 233.9251 0003159 263.5053  96.5783 15.69928096 11396,6737.24,91.724,361.233,356.976,0.0
55296.0,STARLINK-5285,PAYLOAD,2023-03-30 12:30:01,15.69927462,0.000298,70.0012,232.1335,267.1168,92.9686,0.00010179,0.00012045,0.0,0 STARLINK-5285,1 55296U 23010AD  23089.52084741  .00012045  00000-0  10179-3 0  9999,2 55296  70.0012 232.1335 0002980 267.1168  92.9686 15.69927462 11494,6737.242,91.724,361.114,357.099,0.0
55296.0,STARLINK-5285,PAYLOAD,2023-03-30 18:37:01,15.69925921,0.0003094,70.0013,231.4168,268.1337,91.9504,6.4929e-05,7.602e-05,0.0,0 STARLINK-5285,1 55296U 23010AD  23089.77571452  .00007602  00000-0  64929-4 0  9992,2 55296  70.0013 231.4168 0003094 268.1337  91.9504 15.69925921 12720,6737.246,91.724,361.195,357.026,0.0
55296.0,STARLINK-5285,PAYLOAD,2023-03-31 02:15:47,15.69927593,0.0003352,70.0006,230.5207,267.4933,92.5879,4.7588e-05,5.514e-05,0.0,0 STARLINK-5285,1 55296U 23010AD  23090.09429659  .00005514  00000-0  47588-4 0  9992,2 55296  70.0006 230.5207 0003352 267.4933  92.5879 15.69927593 11589,6737.241,91.724,361.364,356.848,0.0
55296.0,STARLINK-5285,PAYLOAD,2023-03-31 12:58:03,15.69920775,0.0002844,70.0011,229.2668,271.2547,88.8323,2.4906e-05,2.783e-05,0.0,0 STARLINK-5285,1 55296U 23010AD  23090.54031832  .00002783  00000-0  24906-4 0  9998,2 55296  70.0011 229.2668 0002844 271.2547  88.8323 15.69920775 11655,6737.261,91.724,361.042,357.21,0.0
55296.0,STARLINK-5285,PAYLOAD,2023-04-01 11:54:20,15.69925295,0.0003058,70.0019,226.5812,263.5579,96.5269,6.9281e-07,-1.29e-06,0.0,0 STARLINK-5285,1 55296U 23010AD  23091.49606756 -.00000129  00000-0  69281-6 0  9996,2 55296  70.0019 226.5812 0003058 263.5579  96.5269 15.69925295 12996,6737.248,91.724,361.173,357.052,0.0
55296.0,STARLINK-5285,PAYLOAD,2023-04-01 18:01:20,15.6993088,0.0002964,70.0017,225.8642,265.6238,94.4619,1.309e-05,1.362e-05,0.0,0 STARLINK-5285,1 55296U 23010AD  23091.75093186  .00001362  00000-0  13090-4 0  9996,2 55296  70.0017 225.8642 0002964 265.6238  94.4619 15.69930880 11842,6737.232,91.724,361.094,357.1,0.0
55296.0,STARLINK-5285,PAYLOAD,2023-04-01 21:04:50,15.69932074,0.0002784,70.0016,225.5057,270.9459,89.1418,3.5147e-05,4.017e-05,0.0,0 STARLINK-5285,1 55296U 23010AD  23091.87836588  .00004017  00000-0  35147-4 0  9997,2 55296  70.0016 225.5057 0002784 270.9459  89.1418 15.69932074 13052,6737.228,91.724,360.969,357.218,0.0
55296.0,STARLINK-5285,PAYLOAD,2023-04-02 12:22:22,15.69924466,0.0003278,70.0012,223.7174,266.335,93.7471,1.3102e-05,1.363e-05,0.0,0 STARLINK-5285,1 55296U 23010AD  23092.51553381  .00001363  00000-0  13102-4 0  9994,2 55296  70.0012 223.7174 0003278 266.3350  93.7471 15.69924466 11960,6737.25,91.724,361.324,356.907,0.0
55296.0,STARLINK-5285,PAYLOAD,2023-04-02 20:01:07,15.69922411,0.0003426,69.9989,222.816,268.887,91.1934,2.1382e-06,4.4e-07,0.0,0 STARLINK-5285,1 55296U 23010AD  23092.83411750  .00000044  00000-0  21382-5 0  9997,2 55296  69.9989 222.8160 0003426 268.8870  91.1934 15.69922411 13207,6737.256,91.724,361.429,356.813,0.0
55296.0,STARLINK-5285,PAYLOAD,2023-04-03 02:08:09,15.69910397,0.0002853,70.0006,222.1031,271.2988,88.7881,-3.6812e-06,-6.55e-06,0.0,0 STARLINK-5285,1 55296U 23010AD  23093.08899451 -.00000655  00000-0 -36812-5 0  9997,2 55296  70.0006 222.1031 0002853 271.2988  88.7881 15.69910397 12056,6737.29,91.725,361.078,357.233,0.0
55296.0,STARLINK-5285,PAYLOAD,2023-04-03 11:18:39,15.69930647,0.0003078,70.0016,221.0268,271.208,88.8763,1.0145e-05,1.008e-05,0.0,0 STARLINK-5285,1 55296U 23010AD  23093.47128475  .00001008  00000-0  10145-4 0  9992,2 55296  70.0016 221.0268 0003078 271.2080  88.8763 15.69930647 12117,6737.232,91.724,361.171,357.024,0.0
55296.0,STARLINK-5285,PAYLOAD,2023-04-03 12:50:23,15.69933499,0.0003209,70.0003,220.8463,265.5943,94.4887,1.2168e-05,1.251e-05,0.0,0 STARLINK-5285,1 55296U 23010AD  23093.53499909  .00001251  00000-0  12168-4 0  9999,2 55296  70.0003 220.8463 0003209 265.5943  94.4887 15.69933499 13318,6737.224,91.724,361.251,356.927,0.0
55296.0,STARLINK-5285,PAYLOAD,2023-04-04 11:46:41,15.69918903,0.0003234,69.9981,218.1585,264.9951,95.0875,2.0237e-05,2.221e-05,0.0,0 STARLINK-5285,1 55296U 23010AD  23094.49075459  .00002221  00000-0  20237-4 0  9999,2 55296  69.9981 218.1585 0003234 264.9951  95.0875 15.69918903 12276,6737.266,91.724,361.31,356.952,0.0
55296.0,STARLINK-5285,PAYLOAD,2023-04-04 20:57:11,15.69927884,0.000293,69.9983,217.0831,265.0991,94.9871,-6.4692e-06,-9.9e-06,0.0,0 STARLINK-5285,1 55296U 23010AD  23094.87305415 -.00000990  00000-0 -64692-5 0  9996,2 55296  69.9983 217.0831 0002930 265.0991  94.9871 15.69927884 13529,6737.24,91.724,361.079,357.131,0.0
55296.0,STARLINK-5285,PAYLOAD,2023-04-05 10:42:57,15.69936532,0.0002896,69.9987,215.4713,254.9985,105.0891,1.3551e-05,1.418e-05,0.0,0 STARLINK-5285,1 55296U 23010AD  23095.44649816  .00001418  00000-0  13551-4 0  9997,2 55296  69.9987 215.4713 0002896 254.9985 105.0891 15.69936532 13611,6737.216,91.723,361.032,357.129,0.0
55296.0,STARLINK-5285,PAYLOAD,2023-04-05 16:49:57,15.69939069,0.0003163,69.9979,214.7544,256.3287,103.7556,1.4407e-05,1.521e-05,0.0,0 STARLINK-5285,1 55296U 23010AD  23095.70136154  .00001521  00000-0  14407-4 0  9998,2 55296  69.9979 214.7544 0003163 256.3287 103.7556 15.69939069 13650,6737.208,91.723,361.204,356.942,0.0
55296.0,STARLINK-5285,PAYLOAD,2023-04-06 09:39:14,15.69921586,0.0003228,69.9975,212.7841,262.444,97.6389,8.0169e-06,7.51e-06,0.0,0 STARLINK-5285,1 55296U 23010AD  23096.40225636  .00000751  00000-0  80169-5 0  9993,2 55296  69.9975 212.7841 0003228 262.4440  97.6389 15.69921586 12575,6737.258,91.724,361.298,356.949,0.0
55296.0,STARLINK-5285,PAYLOAD,2023-04-06 11:11:00,15.69918912,0.0002349,69.9979,212.6052,232.1844,127.9139,1.5906e-05,1.7e-05,0.0,0 STARLINK-5285,1 55296U 23010AD  23096.46597302  .00001700  00000-0  15906-4 0  9992,2 55296  69.9979 212.6052 0002349 232.1844 127.9139 15.69918912 13779,6737.266,91.724,360.714,357.548,0.0
55296.0,STARLINK-5285,PAYLOAD,2023-04-07 10:07:16,15.69928178,0.0003328,69.9991,209.922,269.7833,90.2982,3.6507e-06,2.26e-06,0.0,0 STARLINK-5285,1 55296U 23010AD  23097.42172336  .00000226  00000-0  36507-5 0  9998,2 55296  69.9991 209.9220 0003328 269.7833  90.2982 15.69928178 12739,6737.239,91.724,361.347,356.862,0.0
55296.0,STARLINK-5285,PAYLOAD,2023-04-07 17:46:02,15.69935021,0.0003126,69.9989,209.0257,268.0025,92.0813,3.5616e-06,2.16e-06,0.0,0 STARLINK-5285,1 55296U 23010AD  23097.74030150  .00000216  00000-0  35616-5 0  9999,2 55296  69.9989 209.0257 0003126 268.0025  92.0813 15.69935021 12781,6737.22,91.724,361.191,356.979,0.0
